[{"name":"JCSAT-3A","l1":"1 29272U 06033A   26183.75054252 -.00000334  00000+0  00000+0 0  9993","l2":"2 29272   0.0109 350.8825 0002489 116.6946 211.3973  1.00272752 47891","cat":"geostationary"},{"name":"KOREASAT 5 (MUGUNGWHA 5)","l1":"1 29349U 06034A   26183.68758551 -.00000348  00000+0  00000+0 0  9999","l2":"2 29349   1.8228  82.8123 0002051  60.3329 138.1480  1.00269004 41478","cat":"geostationary"},{"name":"DIRECTV 9S","l1":"1 29494U 06043A   26183.70480316 -.00000104  00000+0  00000+0 0  9994","l2":"2 29494   2.4585  80.7245 0005381  23.9546 328.5942  1.00271871 51530","cat":"geostationary"},{"name":"OPTUS D1","l1":"1 29495U 06043B   26183.69805552 -.00000174  00000+0  00000+0 0  9993","l2":"2 29495   3.0723  79.4754 0003771  17.5128 227.0079  1.00273105 72278","cat":"geostationary"},{"name":"BADR-4","l1":"1 29526U 06051A   26183.75403786  .00000165  00000+0  00000+0 0  9996","l2":"2 29526   2.0426  80.9641 0005272  19.5860 126.1204  1.00271173 51423","cat":"geostationary"},{"name":"WILDBLUE-1","l1":"1 29643U 06054A   26183.63184660 -.00000040  00000+0  00000+0 0  9996","l2":"2 29643   2.8405  80.2965 0001600   9.4215 307.1989  1.00270407 53942","cat":"geostationary"},{"name":"SKYNET 5A","l1":"1 30794U 07007B   26183.68199198 -.00000263  00000+0  00000+0 0  9998","l2":"2 30794   5.3389  73.5528 0003767  33.4861 154.3837  1.00269282 70852","cat":"geostationary"},{"name":"ANIK F3","l1":"1 31102U 07009A   26183.70168316  .00000009  00000+0  00000+0 0  9992","l2":"2 31102   1.2353  83.6813 0002845  17.2419 313.7063  1.00271387 46715","cat":"geostationary"},{"name":"ASTRA 1L","l1":"1 31306U 07016A   26183.72032595 -.00000174  00000+0  00000+0 0  9991","l2":"2 31306   1.3595  81.4720 0005639  22.4576  51.6530  1.00271729 45142","cat":"geostationary"},{"name":"GALAXY 17 (G-17)","l1":"1 31307U 07016B   26183.63704661 -.00000197  00000+0  00000+0 0  9997","l2":"2 31307   3.0086  79.7145 0004017  21.1581 324.1268  1.00271124 69959","cat":"geostationary"},{"name":"INTELSAT 11 (IS-11)","l1":"1 32253U 07044B   26183.78648360  .00000094  00000+0  00000+0 0  9993","l2":"2 32253   3.6036  78.4875 0003501  89.4067  93.2305  0.99048080 68607","cat":"geostationary"},{"name":"WGS F1 (USA 195)","l1":"1 32258U 07046A   26183.21770852 -.00000257  00000+0  00000+0 0  9992","l2":"2 32258   0.0246  77.7515 0000494  86.6344 151.7652  1.00272461 52483","cat":"geostationary"},{"name":"SKYNET 5B","l1":"1 32294U 07056B   26183.30242567  .00000147  00000+0  00000+0 0  9997","l2":"2 32294   5.2897  73.3237 0003469  31.8330 309.1481  1.00273504 68347","cat":"geostationary"},{"name":"ASTRA 4A","l1":"1 32299U 07057A   26183.72613264  .00000043  00000+0  00000+0 0  9990","l2":"2 32299   0.0109   6.9942 0002596  97.5903  82.3829  1.00272495 51808","cat":"geostationary"},{"name":"HORIZONS-2","l1":"1 32388U 07063B   26183.56794633 -.00000244  00000+0  00000+0 0  9992","l2":"2 32388   2.6394  80.4470 0004137   7.8510 322.9478  1.00274311 67961","cat":"geostationary"},{"name":"THURAYA-3","l1":"1 32404U 08001A   26183.73784436  .00000034  00000+0  00000+0 0  9999","l2":"2 32404   6.0137  35.8079 0000846 143.7612  71.4235  1.00141204 67644","cat":"geostationary"},{"name":"THOR 5","l1":"1 32487U 08006A   26183.65374975  .00000002  00000+0  00000+0 0  9994","l2":"2 32487   0.0391 232.1816 0002701 235.2330  47.8709  1.00272191 67472","cat":"geostationary"},{"name":"AMC-14","l1":"1 32708U 08011A   26183.70378718 -.00000113  00000+0  00000+0 0  9995","l2":"2 32708  24.0282  20.3328 0040402   7.6436 218.2662  1.00420149 68321","cat":"geostationary"},{"name":"DIRECTV 11","l1":"1 32729U 08013A   26183.63418661 -.00000115  00000+0  00000+0 0  9996","l2":"2 32729   0.0453 203.0643 0000435 233.2983 333.4381  1.00270031 45746","cat":"geostationary"},{"name":"ICO G1","l1":"1 32763U 08016A   26183.63548661 -.00000163  00000+0  00000+0 0  9994","l2":"2 32763   5.5268  36.0776 0002115  52.9513 327.5522  1.00271922 66701","cat":"geostationary"},{"name":"VINASAT-1","l1":"1 32767U 08018A   26183.69282814 -.00000318  00000+0  00000+0 0  9993","l2":"2 32767   0.0354 289.1811 0001662 184.2549 188.6447  1.00270931 66741","cat":"geostationary"},{"name":"STAR ONE C2","l1":"1 32768U 08018B   26183.56967969 -.00000267  00000+0  00000+0 0  9994","l2":"2 32768   1.2776  82.3357 0002949  27.2380 311.1079  1.00273537 66805","cat":"geostationary"},{"name":"AMOS-3","l1":"1 32794U 08022A   26183.76769242  .00000091  00000+0  00000+0 0  9998","l2":"2 32794   0.4933  86.0237 0002763  71.3149  90.4712  1.00484735 82493","cat":"geostationary"},{"name":"GALAXY 18 (G-18)","l1":"1 32951U 08024A   26183.62950659  .00000036  00000+0  00000+0 0  9993","l2":"2 32951   0.0143  54.6269 0003184  52.5696 277.0908  1.00272123 46002","cat":"geostationary"},{"name":"ZHONGXING-9","l1":"1 33051U 08028A   26183.88602897 -.00000238  00000+0  00000+0 0  9990","l2":"2 33051   0.8075  85.1702 0003992   5.5149 241.5676  1.00269530 66193","cat":"geostationary"},{"name":"SKYNET 5C","l1":"1 33055U 08030A   26183.43646469 -.00000131  00000+0  00000+0 0  9993","l2":"2 33055   3.8256  76.8649 0004451  32.7262 310.2194  1.00271280 66102","cat":"geostationary"},{"name":"TURKSAT 3A","l1":"1 33056U 08030B   26183.83070109  .00000157  00000+0  00000+0 0  9997","l2":"2 33056   0.0474  76.5658 0005308   5.7129 179.6224  1.00271742 52519","cat":"geostationary"},{"name":"ECHOSTAR 11","l1":"1 33207U 08035A   26183.63210660 -.00000048  00000+0  00000+0 0  9996","l2":"2 33207   1.0428  84.0249 0002580   9.0802 305.3233  1.00272219 51361","cat":"geostationary"},{"name":"SUPERBIRD-C2","l1":"1 33274U 08038A   26183.85431277 -.00000297  00000+0  00000+0 0  9992","l2":"2 33274   2.3990  81.0814 0006536  33.2570 250.0962  1.00269943105886","cat":"geostationary"},{"name":"INMARSAT 4-F3","l1":"1 33278U 08039A   26183.63444661 -.00000131  00000+0  00000+0 0  9991","l2":"2 33278   4.3062  31.6701 0002657  74.5473 304.8461  1.00271124 46709","cat":"geostationary"},{"name":"NIMIQ 4","l1":"1 33373U 08044A   26183.78009602  .00000000  00000+0  00000+0 0  9995","l2":"2 33373   0.0408  63.0886 0001844  45.6923  10.9117  1.00266891 65148","cat":"geostationary"},{"name":"GALAXY 19 (G-19)","l1":"1 33376U 08045A   26183.63461993 -.00000128  00000+0  00000+0 0  9990","l2":"2 33376   0.0500 249.5276 0002939 227.5303 295.0729  1.00271514 65050","cat":"geostationary"}]