OBJECT_NAME,OBJECT_ID,EPOCH,MEAN_MOTION,ECCENTRICITY,INCLINATION,RA_OF_ASC_NODE,ARG_OF_PERICENTER,MEAN_ANOMALY,EPHEMERIS_TYPE,CLASSIFICATION_TYPE,NORAD_CAT_ID,ELEMENT_SET_NO,REV_AT_EPOCH,BSTAR,MEAN_MOTION_DOT,MEAN_MOTION_DDOT
JCSAT-3A,2006-033A,2026-07-02T18:00:46.873728,1.00272752,.0002489,0.0109,350.8825,116.6946,211.3973,0,U,29272,999,4789,0,-.334E-5,0
KOREASAT 5 (MUGUNGWHA 5),2006-034A,2026-07-02T16:30:07.388064,1.00269004,.0002051,1.8228,82.8123,60.3329,138.1480,0,U,29349,999,4147,0,-.348E-5,0
DIRECTV 9S,2006-043A,2026-07-02T16:54:54.993024,1.00271871,.0005381,2.4585,80.7245,23.9546,328.5942,0,U,29494,999,5153,0,-.104E-5,0
OPTUS D1,2006-043B,2026-07-02T16:45:11.996928,1.00273105,.0003771,3.0723,79.4754,17.5128,227.0079,0,U,29495,999,7227,0,-.174E-5,0
BADR-4,2006-051A,2026-07-02T18:05:48.871104,1.00271173,.0005272,2.0426,80.9641,19.5860,126.1204,0,U,29526,999,5142,0,.165E-5,0
WILDBLUE-1,2006-054A,2026-07-02T15:09:51.546240,1.00270407,.00016,2.8405,80.2965,9.4215,307.1989,0,U,29643,999,5394,0,-.4E-6,0
SKYNET 5A,2007-007B,2026-07-02T16:22:04.107072,1.00269282,.0003767,5.3389,73.5528,33.4861,154.3837,0,U,30794,999,7085,0,-.263E-5,0
ANIK F3,2007-009A,2026-07-02T16:50:25.425024,1.00271387,.0002845,1.2353,83.6813,17.2419,313.7063,0,U,31102,999,4671,0,.9E-7,0
ASTRA 1L,2007-016A,2026-07-02T17:17:16.162080,1.00271729,.0005639,1.3595,81.4720,22.4576,51.6530,0,U,31306,999,4514,0,-.174E-5,0
GALAXY 17 (G-17),2007-016B,2026-07-02T15:17:20.827104,1.00271124,.0004017,3.0086,79.7145,21.1581,324.1268,0,U,31307,999,6995,0,-.197E-5,0
INTELSAT 11 (IS-11),2007-044B,2026-07-02T18:52:32.183040,0.99048080,.0003501,3.6036,78.4875,89.4067,93.2305,0,U,32253,999,6860,0,.94E-6,0
WGS F1 (USA 195),2007-046A,2026-07-02T05:13:30.016128,1.00272461,.0000494,0.0246,77.7515,86.6344,151.7652,0,U,32258,999,5248,0,-.257E-5,0
SKYNET 5B,2007-056B,2026-07-02T07:15:29.577888,1.00273504,.0003469,5.2897,73.3237,31.8330,309.1481,0,U,32294,999,6834,0,.147E-5,0
ASTRA 4A,2007-057A,2026-07-02T17:25:37.860096,1.00272495,.0002596,0.0109,6.9942,97.5903,82.3829,0,U,32299,999,5180,0,.43E-6,0
HORIZONS-2,2007-063B,2026-07-02T13:37:50.562912,1.00274311,.0004137,2.6394,80.4470,7.8510,322.9478,0,U,32388,999,6796,0,-.244E-5,0
THURAYA-3,2008-001A,2026-07-02T17:42:29.752704,1.00141204,.0000846,6.0137,35.8079,143.7612,71.4235,0,U,32404,999,6764,0,.34E-6,0
THOR 5,2008-006A,2026-07-02T15:41:23.978400,1.00272191,.0002701,0.0391,232.1816,235.2330,47.8709,0,U,32487,999,6747,0,.2E-7,0
AMC-14,2008-011A,2026-07-02T16:53:27.212352,1.00420149,.0040402,24.0282,20.3328,7.6436,218.2662,0,U,32708,999,6832,0,-.113E-5,0
DIRECTV 11,2008-013A,2026-07-02T15:13:13.723104,1.00270031,.0000435,0.0453,203.0643,233.2983,333.4381,0,U,32729,999,4574,0,-.115E-5,0
ICO G1,2008-016A,2026-07-02T15:15:06.043104,1.00271922,.0002115,5.5268,36.0776,52.9513,327.5522,0,U,32763,999,6670,0,-.163E-5,0
VINASAT-1,2008-018A,2026-07-02T16:37:40.351296,1.00270931,.0001662,0.0354,289.1811,184.2549,188.6447,0,U,32767,999,6674,0,-.318E-5,0
STAR ONE C2,2008-018B,2026-07-02T13:40:20.325216,1.00273537,.0002949,1.2776,82.3357,27.2380,311.1079,0,U,32768,999,6680,0,-.267E-5,0
AMOS-3,2008-022A,2026-07-02T18:25:28.625088,1.00484735,.0002763,0.4933,86.0237,71.3149,90.4712,0,U,32794,999,8249,0,.91E-6,0
GALAXY 18 (G-18),2008-024A,2026-07-02T15:06:29.369376,1.00272123,.0003184,0.0143,54.6269,52.5696,277.0908,0,U,32951,999,4600,0,.36E-6,0
ZHONGXING-9,2008-028A,2026-07-02T21:15:52.903008,1.00269530,.0003992,0.8075,85.1702,5.5149,241.5676,0,U,33051,999,6619,0,-.238E-5,0
SKYNET 5C,2008-030A,2026-07-02T10:28:30.549216,1.00271280,.0004451,3.8256,76.8649,32.7262,310.2194,0,U,33055,999,6610,0,-.131E-5,0
TURKSAT 3A,2008-030B,2026-07-02T19:56:12.574176,1.00271742,.0005308,0.0474,76.5658,5.7129,179.6224,0,U,33056,999,5251,0,.157E-5,0
ECHOSTAR 11,2008-035A,2026-07-02T15:10:14.010240,1.00272219,.000258,1.0428,84.0249,9.0802,305.3233,0,U,33207,999,5136,0,-.48E-6,0
SUPERBIRD-C2,2008-038A,2026-07-02T20:30:12.623328,1.00269943,.0006536,2.3990,81.0814,33.2570,250.0962,0,U,33274,999,10588,0,-.297E-5,0
INMARSAT 4-F3,2008-039A,2026-07-02T15:13:36.187104,1.00271124,.0002657,4.3062,31.6701,74.5473,304.8461,0,U,33278,999,4670,0,-.131E-5,0
NIMIQ 4,2008-044A,2026-07-02T18:43:20.296128,1.00266891,.0001844,0.0408,63.0886,45.6923,10.9117,0,U,33373,999,6514,0,0,0
GALAXY 19 (G-19),2008-045A,2026-07-02T15:13:51.161952,1.00271514,.0002939,0.0500,249.5276,227.5303,295.0729,0,U,33376,999,6505,0,-.128E-5,0
